*******************************************************************************
Ephemeris / WWW_USER Mon Jul 15 19:05:55 2024 Pasadena, USA      / Horizons    
*******************************************************************************
Target body name: (2018 RD5)                      {source: JPL#11}
Center body name: Earth (399)                     {source: DE441}
Center-site name: Gemini South Obs., Cerro Pachon
*******************************************************************************
Start time      : A.D. 2018-Nov-01 23:14:00.0000 UT      
Stop  time      : A.D. 2018-Nov-02 09:38:00.0000 UT      
Step-size       : 1 minutes
*******************************************************************************
Target pole/equ : undefined
Target radii    : undefined                                                    
Center geodetic : 289.2634, -30.2406227, 2.71233  {E-lon(deg),Lat(deg),Alt(km)}
Center cylindric: 289.2634,5517.21435,-3194.81213 {E-lon(deg),Dxy(km),Dz(km)}
Center pole/equ : ITRF93                          {East-longitude positive}
Center radii    : 6378.137, 6378.137, 6356.752 km {Equator_a, b, pole_c}       
Target primary  : Sun
Vis. interferer : MOON (R_eq= 1737.400) km        {source: DE441}
Rel. light bend : Sun                             {source: DE441}
Rel. lght bnd GM: 1.3271E+11 km^3/s^2                                          
Small-body perts: Yes                             {source: SB441-N16}
Atmos refraction: NO (AIRLESS)
RA format       : HMS
Time format     : CAL 
Calendar mode   : Mixed Julian/Gregorian
RTS-only print  : NO       
EOP file        : eop.240715.p241008                                           
EOP coverage    : DATA-BASED 1962-JAN-20 TO 2024-JUL-15. PREDICTS-> 2024-OCT-07
Units conversion: 1 au= 149597870.700 km, c= 299792.458 km/s, 1 day= 86400.0 s 
Table cut-offs 1: Elevation (-90.0deg=NO ),Airmass (>38.000=NO), Daylight (YES)
Table cut-offs 2: Solar elongation (  0.0,180.0=NO ),Local Hour Angle( 0.0=NO )
Table cut-offs 3: RA/DEC angular rate (     0.0=NO )                           
*******************************************************************************
Initial IAU76/J2000 heliocentric ecliptic osculating elements (au, days, deg.):
  EPOCH=  2458378.5 ! 2018-Sep-17.00 (TDB)         Residual RMS= .55339        
   EC= .2891632988519429   QR= 1.009650912138325   TP= 2458360.6433297051      
   OM= 171.0145363394364   W=  163.7983400129293   IN= 8.474307805886117       
  Equivalent ICRF heliocentric cartesian coordinates (au, au/d):
   X= 1.017757009008053E+00  Y=-8.967367621791844E-02  Z=-4.840656937149759E-02
  VX= 3.309922676318766E-03 VY= 1.832358809606965E-02 VZ= 4.854018792897502E-03
Asteroid physical parameters (km, seconds, rotational period in hours):        
   GM= n.a.                RAD= n.a.               ROTPER= n.a.                
   H= 25.9                 G= .150                 B-V= n.a.                   
                           ALBEDO= n.a.            STYP= n.a.                  
*******************************************************************************
 Date__(UT)__HR:MN     R.A._________(ICRF)_________DEC
******************************************************
$$SOE
 2018-Nov-02 07:26  m  03 01 14.457228 -23 35 38.15120
 2018-Nov-02 07:27  m  03 01 14.423858 -23 35 37.47715
 2018-Nov-02 07:28  m  03 01 14.390521 -23 35 36.80285
 2018-Nov-02 07:29  m  03 01 14.357216 -23 35 36.12831
 2018-Nov-02 07:30  m  03 01 14.323943 -23 35 35.45353
 2018-Nov-02 07:31  m  03 01 14.290703 -23 35 34.77851
 2018-Nov-02 07:32  m  03 01 14.257496 -23 35 34.10325
 2018-Nov-02 07:33  m  03 01 14.224322 -23 35 33.42775
 2018-Nov-02 07:34  m  03 01 14.191181 -23 35 32.75202
 2018-Nov-02 07:35  m  03 01 14.158074 -23 35 32.07605
 2018-Nov-02 07:36  m  03 01 14.125000 -23 35 31.39984
 2018-Nov-02 07:37  m  03 01 14.091959 -23 35 30.72340
 2018-Nov-02 07:38  m  03 01 14.058953 -23 35 30.04673
 2018-Nov-02 07:39  m  03 01 14.025980 -23 35 29.36982
 2018-Nov-02 07:40  m  03 01 13.993042 -23 35 28.69267
 2018-Nov-02 07:41  m  03 01 13.960138 -23 35 28.01530
 2018-Nov-02 07:42  m  03 01 13.927269 -23 35 27.33770
 2018-Nov-02 07:43  m  03 01 13.894435 -23 35 26.65986
 2018-Nov-02 07:44  m  03 01 13.861635 -23 35 25.98180
 2018-Nov-02 07:45  m  03 01 13.828871 -23 35 25.30351
 2018-Nov-02 07:46  m  03 01 13.796141 -23 35 24.62499
 2018-Nov-02 07:47  m  03 01 13.763448 -23 35 23.94624
 2018-Nov-02 07:48  m  03 01 13.730790 -23 35 23.26727
 2018-Nov-02 07:49  m  03 01 13.698167 -23 35 22.58807
 2018-Nov-02 07:50  m  03 01 13.665581 -23 35 21.90865
 2018-Nov-02 07:51  m  03 01 13.633030 -23 35 21.22901
 2018-Nov-02 07:52  m  03 01 13.600516 -23 35 20.54914
 2018-Nov-02 07:53  m  03 01 13.568039 -23 35 19.86905
 2018-Nov-02 07:54  m  03 01 13.535598 -23 35 19.18875
 2018-Nov-02 07:55  m  03 01 13.503193 -23 35 18.50822
 2018-Nov-02 07:56  m  03 01 13.470826 -23 35 17.82747
 2018-Nov-02 07:57  m  03 01 13.438496 -23 35 17.14651
 2018-Nov-02 07:58  m  03 01 13.406203 -23 35 16.46532
 2018-Nov-02 07:59  m  03 01 13.373947 -23 35 15.78393
 2018-Nov-02 08:00  m  03 01 13.341729 -23 35 15.10231
 2018-Nov-02 08:01  m  03 01 13.309549 -23 35 14.42048
 2018-Nov-02 08:02  m  03 01 13.277406 -23 35 13.73844
 2018-Nov-02 08:03  m  03 01 13.245302 -23 35 13.05619
 2018-Nov-02 08:04  m  03 01 13.213236 -23 35 12.37372
 2018-Nov-02 08:05  m  03 01 13.181208 -23 35 11.69105
 2018-Nov-02 08:06  m  03 01 13.149219 -23 35 11.00816
 2018-Nov-02 08:07  m  03 01 13.117268 -23 35 10.32507
 2018-Nov-02 08:08  m  03 01 13.085356 -23 35 09.64176
 2018-Nov-02 08:09  m  03 01 13.053484 -23 35 08.95825
 2018-Nov-02 08:10  m  03 01 13.021650 -23 35 08.27454
 2018-Nov-02 08:11  m  03 01 12.989856 -23 35 07.59062
 2018-Nov-02 08:12  m  03 01 12.958101 -23 35 06.90649
 2018-Nov-02 08:13  m  03 01 12.926386 -23 35 06.22216
 2018-Nov-02 08:14  m  03 01 12.894710 -23 35 05.53763
 2018-Nov-02 08:15  m  03 01 12.863075 -23 35 04.85290
 2018-Nov-02 08:16  m  03 01 12.831479 -23 35 04.16797
 2018-Nov-02 08:17  m  03 01 12.799924 -23 35 03.48284
 2018-Nov-02 08:18  m  03 01 12.768409 -23 35 02.79751
 2018-Nov-02 08:19  m  03 01 12.736934 -23 35 02.11198
 2018-Nov-02 08:20  m  03 01 12.705500 -23 35 01.42626
 2018-Nov-02 08:21 Am  03 01 12.674107 -23 35 00.74034
 2018-Nov-02 08:22 Am  03 01 12.642755 -23 35 00.05422
 2018-Nov-02 08:23 Am  03 01 12.611444 -23 34 59.36792
 2018-Nov-02 08:24 Am  03 01 12.580174 -23 34 58.68142
 2018-Nov-02 08:25 Am  03 01 12.548945 -23 34 57.99472
 2018-Nov-02 08:26 Am  03 01 12.517758 -23 34 57.30784
 2018-Nov-02 08:27 Am  03 01 12.486612 -23 34 56.62077
 2018-Nov-02 08:28 Am  03 01 12.455509 -23 34 55.93351
 2018-Nov-02 08:29 Am  03 01 12.424447 -23 34 55.24606
 2018-Nov-02 08:30 Am  03 01 12.393427 -23 34 54.55843
 2018-Nov-02 08:31 Am  03 01 12.362449 -23 34 53.87061
 2018-Nov-02 08:32 Am  03 01 12.331514 -23 34 53.18260
 2018-Nov-02 08:33 Am  03 01 12.300621 -23 34 52.49441
 2018-Nov-02 08:34 Am  03 01 12.269771 -23 34 51.80604
 2018-Nov-02 08:35 Am  03 01 12.238964 -23 34 51.11749
 2018-Nov-02 08:36 Am  03 01 12.208199 -23 34 50.42876
 2018-Nov-02 08:37 Am  03 01 12.177477 -23 34 49.73985
 2018-Nov-02 08:38 Am  03 01 12.146799 -23 34 49.05076
 2018-Nov-02 08:39 Am  03 01 12.116164 -23 34 48.36149
 2018-Nov-02 08:40 Am  03 01 12.085572 -23 34 47.67205
 2018-Nov-02 08:41 Am  03 01 12.055023 -23 34 46.98243
 2018-Nov-02 08:42 Am  03 01 12.024518 -23 34 46.29263
 2018-Nov-02 08:43 Am  03 01 11.994057 -23 34 45.60267
 2018-Nov-02 08:44 Am  03 01 11.963640 -23 34 44.91253
 2018-Nov-02 08:45 Am  03 01 11.933267 -23 34 44.22222
 2018-Nov-02 08:46 Am  03 01 11.902938 -23 34 43.53174
 2018-Nov-02 08:47 Am  03 01 11.872653 -23 34 42.84109
 2018-Nov-02 08:48 Am  03 01 11.842413 -23 34 42.15027
 2018-Nov-02 08:49 Am  03 01 11.812217 -23 34 41.45929
 2018-Nov-02 08:50 Am  03 01 11.782066 -23 34 40.76814
 2018-Nov-02 08:51 Am  03 01 11.751960 -23 34 40.07683
 2018-Nov-02 08:52 Nm  03 01 11.721898 -23 34 39.38535
 2018-Nov-02 08:53 Nm  03 01 11.691881 -23 34 38.69371
 2018-Nov-02 08:54 Nm  03 01 11.661910 -23 34 38.00191
 2018-Nov-02 08:55 Nm  03 01 11.631984 -23 34 37.30995
 2018-Nov-02 08:56 Nm  03 01 11.602103 -23 34 36.61782
 2018-Nov-02 08:57 Nm  03 01 11.572267 -23 34 35.92554
 2018-Nov-02 08:58 Nm  03 01 11.542477 -23 34 35.23311
 2018-Nov-02 08:59 Nm  03 01 11.512733 -23 34 34.54052
 2018-Nov-02 09:00 Nm  03 01 11.483035 -23 34 33.84777
 2018-Nov-02 09:01 Nm  03 01 11.453382 -23 34 33.15487
 2018-Nov-02 09:02 Nm  03 01 11.423775 -23 34 32.46181
 2018-Nov-02 09:03 Nm  03 01 11.394215 -23 34 31.76861
 2018-Nov-02 09:04 Nm  03 01 11.364701 -23 34 31.07525
 2018-Nov-02 09:05 Nm  03 01 11.335233 -23 34 30.38175
 2018-Nov-02 09:06 Nm  03 01 11.305812 -23 34 29.68809
 2018-Nov-02 09:07 Nm  03 01 11.276437 -23 34 28.99429
 2018-Nov-02 09:08 Nm  03 01 11.247108 -23 34 28.30034
 2018-Nov-02 09:09 Nm  03 01 11.217827 -23 34 27.60625
 2018-Nov-02 09:10 Nm  03 01 11.188592 -23 34 26.91202
 2018-Nov-02 09:11 Nm  03 01 11.159405 -23 34 26.21764
 2018-Nov-02 09:12 Nm  03 01 11.130264 -23 34 25.52312
 2018-Nov-02 09:13 Nm  03 01 11.101171 -23 34 24.82846
 2018-Nov-02 09:14 Nm  03 01 11.072125 -23 34 24.13366
 2018-Nov-02 09:15 Nm  03 01 11.043126 -23 34 23.43872
 2018-Nov-02 09:16 Nm  03 01 11.014175 -23 34 22.74365
 2018-Nov-02 09:17 Nm  03 01 10.985271 -23 34 22.04843
 2018-Nov-02 09:18 Nm  03 01 10.956415 -23 34 21.35309
 2018-Nov-02 09:19 Nm  03 01 10.927607 -23 34 20.65761
 2018-Nov-02 09:20 Nm  03 01 10.898846 -23 34 19.96200
 2018-Nov-02 09:21 Nm  03 01 10.870134 -23 34 19.26625
 2018-Nov-02 09:22 Cm  03 01 10.841470 -23 34 18.57038
 2018-Nov-02 09:23 Cm  03 01 10.812853 -23 34 17.87438
 2018-Nov-02 09:24 Cm  03 01 10.784285 -23 34 17.17825
 2018-Nov-02 09:25 Cm  03 01 10.755765 -23 34 16.48199
 2018-Nov-02 09:26 Cm  03 01 10.727294 -23 34 15.78561
 2018-Nov-02 09:27 Cm  03 01 10.698871 -23 34 15.08910
 2018-Nov-02 09:28 Cm  03 01 10.670497 -23 34 14.39247
